{"type": "FeatureCollection", "features": [ {"type": "Feature", "properties": {"norad_id": 31480, "name": "FENGYUN 1C DEB", "group": "fengyun-1c-debris", "lat": -10.766827406077757, "lon": 15.594810821803355, "alt_km": 718.7209845108491, "timestamp": "2025-12-11T22:43:47.551737+00:00", "meta": {"OBJECT_NAME": "FENGYUN 1C DEB", "OBJECT_ID": "1999-025BVU", "EPOCH": "2025-12-11T13:09:10.099584", "MEAN_MOTION": 13.89903318, "ECCENTRICITY": 0.03451376, "INCLINATION": 98.3381, "RA_OF_ASC_NODE": 196.8343, "ARG_OF_PERICENTER": 224.7127, "MEAN_ANOMALY": 132.5732, "EPHEMERIS_TYPE": 0, "CLASSIFICATION_TYPE": "U", "NORAD_CAT_ID": 31480, "ELEMENT_SET_NO": 999, "REV_AT_EPOCH": 93379, "BSTAR": 0.0048624139, "MEAN_MOTION_DOT": 9.649e-05, "MEAN_MOTION_DDOT": 0}, "tle": {"line1": "1 31480U 99025BVU 25345.54803356  .00009649  00000+0  48624-2 0  9997", "line2": "2 31480  98.3381 196.8343 0345137 224.7127 132.5732 13.89903318933791"}}, "geometry": {"type": "Point", "coordinates": [15.594810821803355, -10.766827406077757]}}, {"type": "Feature", "properties": {"norad_id": 31482, "name": "FENGYUN 1C DEB", "group": "fengyun-1c-debris", "lat": 50.13796528239513, "lon": 179.99694649510357, "alt_km": 826.0632967817928, "timestamp": "2025-12-11T22:43:47.551749+00:00", "meta": {"OBJECT_NAME": "FENGYUN 1C DEB", "OBJECT_ID": "1999-025BVW", "EPOCH": "2025-12-11T07:08:31.579008", "MEAN_MOTION": 14.35648587, "ECCENTRICITY": 0.00888249, "INCLINATION": 98.383, "RA_OF_ASC_NODE": 349.194, "ARG_OF_PERICENTER": 286.624, "MEAN_ANOMALY": 87.9915, "EPHEMERIS_TYPE": 0, "CLASSIFICATION_TYPE": "U", "NORAD_CAT_ID": 31482, "ELEMENT_SET_NO": 999, "REV_AT_EPOCH": 97109, "BSTAR": 0.0013328779, "MEAN_MOTION_DOT": 3.979e-05, "MEAN_MOTION_DDOT": 0}, "tle": {"line1": "1 31482U 99025BVW 25345.29758772  .00003979  00000+0  13329-2 0  9996", "line2": "2 31482  98.3830 349.1940 0088824 286.6240  87.9915 14.35648587971095"}}, "geometry": {"type": "Point", "coordinates": [179.99694649510357, 50.13796528239513]}}, {"type": "Feature", "properties": {"norad_id": 31483, "name": "FENGYUN 1C DEB", "group": "fengyun-1c-debris", "lat": 33.62347727212465, "lon": -72.58328592798995, "alt_km": 921.2782296413307, "timestamp": "2025-12-11T22:43:47.551759+00:00", "meta": {"OBJECT_NAME": "FENGYUN 1C DEB", "OBJECT_ID": "1999-025BVX", "EPOCH": "2025-12-11T14:57:07.383168", "MEAN_MOTION": 14.16014051, "ECCENTRICITY": 0.01187327, "INCLINATION": 102.5034, "RA_OF_ASC_NODE": 295.4491, "ARG_OF_PERICENTER": 223.8811, "MEAN_ANOMALY": 319.3347, "EPHEMERIS_TYPE": 0, "CLASSIFICATION_TYPE": "U", "NORAD_CAT_ID": 31483, "ELEMENT_SET_NO": 999, "REV_AT_EPOCH": 94690, "BSTAR": 0.004812358, "MEAN_MOTION_DOT": 0.0001011, "MEAN_MOTION_DDOT": 0}, "tle": {"line1": "1 31483U 99025BVX 25345.62300212  .00010110  00000+0  48124-2 0  9992", "line2": "2 31483 102.5034 295.4491 0118732 223.8811 319.3347 14.16014051946908"}}, "geometry": {"type": "Point", "coordinates": [-72.58328592798995, 33.62347727212465]}}, {"type": "Feature", "properties": {"norad_id": 31484, "name": "FENGYUN 1C DEB", "group": "fengyun-1c-debris", "lat": -39.088088750871016, "lon": -68.19924565221154, "alt_km": 787.8367953182124, "timestamp": "2025-12-11T22:43:47.551770+00:00", "meta": {"OBJECT_NAME": "FENGYUN 1C DEB", "OBJECT_ID": "1999-025BVY", "EPOCH": "2025-12-10T07:10:50.894688", "MEAN_MOTION": 14.50258129, "ECCENTRICITY": 0.0082922, "INCLINATION": 101.8042, "RA_OF_ASC_NODE": 279.7183, "ARG_OF_PERICENTER": 158.6379, "MEAN_ANOMALY": 201.8297, "EPHEMERIS_TYPE": 0, "CLASSIFICATION_TYPE": "U", "NORAD_CAT_ID": 31484, "ELEMENT_SET_NO": 999, "REV_AT_EPOCH": 64202, "BSTAR": 0.0073567, "MEAN_MOTION_DOT": 0.00030002, "MEAN_MOTION_DDOT": 0}, "tle": {"line1": "1 31484U 99025BVY 25344.29920017  .00030002  00000+0  73567-2 0  9997", "line2": "2 31484 101.8042 279.7183 0082922 158.6379 201.8297 14.50258129642027"}}, "geometry": {"type": "Point", "coordinates": [-68.19924565221154, -39.088088750871016]}}, {"type": "Feature", "properties": {"norad_id": 31485, "name": "FENGYUN 1C DEB", "group": "fengyun-1c-debris", "lat": 8.284947594193367, "lon": 171.09158317451931, "alt_km": 879.2362835665908, "timestamp": "2025-12-11T22:43:47.551780+00:00", "meta": {"OBJECT_NAME": "FENGYUN 1C DEB", "OBJECT_ID": "1999-025BVZ", "EPOCH": "2025-12-10T10:51:19.342080", "MEAN_MOTION": 13.40027738, "ECCENTRICITY": 0.04458594, "INCLINATION": 102.7187, "RA_OF_ASC_NODE": 171.1002, "ARG_OF_PERICENTER": 323.8485, "MEAN_ANOMALY": 33.3238, "EPHEMERIS_TYPE": 0, "CLASSIFICATION_TYPE": "U", "NORAD_CAT_ID": 31485, "ELEMENT_SET_NO": 999, "REV_AT_EPOCH": 90414, "BSTAR": 0.0039196395, "MEAN_MOTION_DOT": 3.758e-05, "MEAN_MOTION_DDOT": 0}, "tle": {"line1": "1 31485U 99025BVZ 25344.45230720  .00003758  00000+0  39196-2 0  9999", "line2": "2 31485 102.7187 171.1002 0445859 323.8485  33.3238 13.40027738904144"}}, "geometry": {"type": "Point", "coordinates": [171.09158317451931, 8.284947594193367]}}, {"type": "Feature", "properties": {"norad_id": 31487, "name": "FENGYUN 1C DEB", "group": "fengyun-1c-debris", "lat": -39.60305389063597, "lon": 164.6333330781033, "alt_km": 821.9930964985988, "timestamp": "2025-12-11T22:43:47.551790+00:00", "meta": {"OBJECT_NAME": "FENGYUN 1C DEB", "OBJECT_ID": "1999-025BWB", "EPOCH": "2025-12-09T17:44:32.604000", "MEAN_MOTION": 13.97711956, "ECCENTRICITY": 0.01202997, "INCLINATION": 102.4139, "RA_OF_ASC_NODE": 151.1598, "ARG_OF_PERICENTER": 313.5334, "MEAN_ANOMALY": 61.6285, "EPHEMERIS_TYPE": 0, "CLASSIFICATION_TYPE": "U", "NORAD_CAT_ID": 31487, "ELEMENT_SET_NO": 999, "REV_AT_EPOCH": 94370, "BSTAR": 0.0022584983, "MEAN_MOTION_DOT": 3.321e-05, "MEAN_MOTION_DDOT": 0}, "tle": {"line1": "1 31487U 99025BWB 25343.73926625  .00003321  00000+0  22585-2 0  9997", "line2": "2 31487 102.4139 151.1598 0120299 313.5334  61.6285 13.97711956943700"}}, "geometry": {"type": "Point", "coordinates": [164.6333330781033, -39.60305389063597]}}, {"type": "Feature", "properties": {"norad_id": 31491, "name": "FENGYUN 1C DEB", "group": "fengyun-1c-debris", "lat": 73.30724900271491, "lon": 107.65414442350101, "alt_km": 864.904722625578, "timestamp": "2025-12-11T22:43:47.551800+00:00", "meta": {"OBJECT_NAME": "FENGYUN 1C DEB", "OBJECT_ID": "1999-025BWE", "EPOCH": "2025-12-06T04:59:33.394560", "MEAN_MOTION": 14.1718589, "ECCENTRICITY": 0.00532624, "INCLINATION": 99.3042, "RA_OF_ASC_NODE": 248.5122, "ARG_OF_PERICENTER": 286.6061, "MEAN_ANOMALY": 72.9267, "EPHEMERIS_TYPE": 0, "CLASSIFICATION_TYPE": "U", "NORAD_CAT_ID": 31491, "ELEMENT_SET_NO": 999, "REV_AT_EPOCH": 63635, "BSTAR": 0.0031475615, "MEAN_MOTION_DOT": 6.393e-05, "MEAN_MOTION_DDOT": 0}, "tle": {"line1": "1 31491U 99025BWE 25340.20802540  .00006393  00000+0  31476-2 0  9991", "line2": "2 31491  99.3042 248.5122 0053262 286.6061  72.9267 14.17185890636358"}}, "geometry": {"type": "Point", "coordinates": [107.65414442350101, 73.30724900271491]}}, {"type": "Feature", "properties": {"norad_id": 31492, "name": "FENGYUN 1C DEB", "group": "fengyun-1c-debris", "lat": -23.35601140315854, "lon": -31.96404328643178, "alt_km": 708.5636719031963, "timestamp": "2025-12-11T22:43:47.551810+00:00", "meta": {"OBJECT_NAME": "FENGYUN 1C DEB", "OBJECT_ID": "1999-025BWF", "EPOCH": "2025-12-11T10:22:38.963424", "MEAN_MOTION": 14.70689468, "ECCENTRICITY": 0.00645565, "INCLINATION": 98.857, "RA_OF_ASC_NODE": 151.338, "ARG_OF_PERICENTER": 12.9063, "MEAN_ANOMALY": 347.3775, "EPHEMERIS_TYPE": 0, "CLASSIFICATION_TYPE": "U", "NORAD_CAT_ID": 31492, "ELEMENT_SET_NO": 999, "REV_AT_EPOCH": 96487, "BSTAR": 0.0063629624, "MEAN_MOTION_DOT": 0.00040194, "MEAN_MOTION_DDOT": 0}, "tle": {"line1": "1 31492U 99025BWF 25345.43239541  .00040194  00000+0  63630-2 0  9991", "line2": "2 31492  98.8570 151.3380 0064556  12.9063 347.3775 14.70689468964879"}}, "geometry": {"type": "Point", "coordinates": [-31.96404328643178, -23.35601140315854]}}, {"type": "Feature", "properties": {"norad_id": 31493, "name": "FENGYUN 1C DEB", "group": "fengyun-1c-debris", "lat": 18.13375064315109, "lon": -71.59243528743369, "alt_km": 998.1486761057968, "timestamp": "2025-12-11T22:43:47.551820+00:00", "meta": {"OBJECT_NAME": "FENGYUN 1C DEB", "OBJECT_ID": "1999-025BWG", "EPOCH": "2025-12-10T01:49:08.446944", "MEAN_MOTION": 13.92961332, "ECCENTRICITY": 0.0116966, "INCLINATION": 100.1358, "RA_OF_ASC_NODE": 289.7193, "ARG_OF_PERICENTER": 182.7009, "MEAN_ANOMALY": 177.3529, "EPHEMERIS_TYPE": 0, "CLASSIFICATION_TYPE": "U", "NORAD_CAT_ID": 31493, "ELEMENT_SET_NO": 999, "REV_AT_EPOCH": 59829, "BSTAR": 0.0011569896, "MEAN_MOTION_DOT": 1.538e-05, "MEAN_MOTION_DDOT": 0}, "tle": {"line1": "1 31493U 99025BWG 25344.07579221  .00001538  00000+0  11570-2 0  9998", "line2": "2 31493 100.1358 289.7193 0116966 182.7009 177.3529 13.92961332598291"}}, "geometry": {"type": "Point", "coordinates": [-71.59243528743369, 18.13375064315109]}}, {"type": "Feature", "properties": {"norad_id": 31495, "name": "FENGYUN 1C DEB", "group": "fengyun-1c-debris", "lat": 73.65080193396044, "lon": 72.2865011295718, "alt_km": 783.1898670140617, "timestamp": "2025-12-11T22:43:47.551830+00:00", "meta": {"OBJECT_NAME": "FENGYUN 1C DEB", "OBJECT_ID": "1999-025BWJ", "EPOCH": "2025-12-10T09:16:50.784096", "MEAN_MOTION": 14.29184839, "ECCENTRICITY": 0.00253466, "INCLINATION": 99.1197, "RA_OF_ASC_NODE": 217.4548, "ARG_OF_PERICENTER": 185.1122, "MEAN_ANOMALY": 174.9804, "EPHEMERIS_TYPE": 0, "CLASSIFICATION_TYPE": "U", "NORAD_CAT_ID": 31495, "ELEMENT_SET_NO": 999, "REV_AT_EPOCH": 63357, "BSTAR": 0.0018744955, "MEAN_MOTION_DOT": 4.73e-05, "MEAN_MOTION_DDOT": 0}, "tle": {"line1": "1 31495U 99025BWJ 25344.38669889  .00004730  00000+0  18745-2 0  9992", "line2": "2 31495  99.1197 217.4548 0025346 185.1122 174.9804 14.29184839633577"}}, "geometry": {"type": "Point", "coordinates": [72.2865011295718, 73.65080193396044]}}]}